{
  "type": "FeatureCollection",
  "features": [
    {
      "type": "Feature",
      "properties": {
        "norad_id": 34299,
        "name": "COSMOS 2251 DEB",
        "group": "cosmos-2251-debris",
        "lat": -9.148053950712177,
        "lon": 165.13225815766842,
        "alt_km": 382.95175918385667,
        "timestamp": "2025-12-09T05:43:21.120324+00:00",
        "meta_object_name": "COSMOS 2251 DEB",
        "meta_object_id": "1993-036MV",
        "meta_epoch": "2025-12-08T10:31:11.726688",
        "meta_mean_motion": 15.65574318,
        "meta_eccentricity": 0.002253,
        "meta_inclination": 73.9791,
        "meta_ra_of_asc_node": 344.2835,
        "meta_arg_of_pericenter": 57.969,
        "meta_mean_anomaly": 302.3715,
        "meta_ephemeris_type": 0,
        "meta_classification_type": "U",
        "meta_norad_cat_id": 34299,
        "meta_element_set_no": 999,
        "meta_rev_at_epoch": 88943,
        "meta_bstar": 0.0060259825,
        "meta_mean_motion_dot": 0.00662605,
        "meta_mean_motion_ddot": 0,
        "tle_line1": "1 34299U 93036MV  25342.43833017  .00662605  00000+0  60260-2 0  9993",
        "tle_line2": "2 34299  73.9791 344.2835 0022530  57.9690 302.3715 15.65574318889430"
      },
      "geometry": {
        "type": "Point",
        "coordinates": [
          165.13225815766842,
          -9.148053950712177
        ]
      }
    },
    {
      "type": "Feature",
      "properties": {
        "norad_id": 34301,
        "name": "COSMOS 2251 DEB",
        "group": "cosmos-2251-debris",
        "lat": -55.29724284291965,
        "lon": 18.128323960662843,
        "alt_km": 614.3525223908373,
        "timestamp": "2025-12-09T05:43:21.120334+00:00",
        "meta_object_name": "COSMOS 2251 DEB",
        "meta_object_id": "1993-036MX",
        "meta_epoch": "2025-12-08T14:20:36.693024",
        "meta_mean_motion": 14.84230751,
        "meta_eccentricity": 0.0011847,
        "meta_inclination": 74.0058,
        "meta_ra_of_asc_node": 174.9323,
        "meta_arg_of_pericenter": 233.9967,
        "meta_mean_anomaly": 182.2093,
        "meta_ephemeris_type": 0,
        "meta_classification_type": "U",
        "meta_norad_cat_id": 34301,
        "meta_element_set_no": 999,
        "meta_rev_at_epoch": 88339,
        "meta_bstar": 0.003118,
        "meta_mean_motion_dot": 0.00026206,
        "meta_mean_motion_ddot": 0,
        "tle_line1": "1 34301U 93036MX  25342.59764691  .00026206  00000+0  31180-2 0  9995",
        "tle_line2": "2 34301  74.0058 174.9323 0011847 233.9967 182.2093 14.84230751883397"
      },
      "geometry": {
        "type": "Point",
        "coordinates": [
          18.128323960662843,
          -55.29724284291965
        ]
      }
    },
    {
      "type": "Feature",
      "properties": {
        "norad_id": 34302,
        "name": "COSMOS 2251 DEB",
        "group": "cosmos-2251-debris",
        "lat": 4.545359149954798,
        "lon": -51.304144449655524,
        "alt_km": 818.1683904942001,
        "timestamp": "2025-12-09T05:43:21.120345+00:00",
        "meta_object_name": "COSMOS 2251 DEB",
        "meta_object_id": "1993-036MY",
        "meta_epoch": "2025-12-08T19:27:36.042048",
        "meta_mean_motion": 14.39308605,
        "meta_eccentricity": 0.0078531,
        "meta_inclination": 74.1784,
        "meta_ra_of_asc_node": 130.7697,
        "meta_arg_of_pericenter": 347.1548,
        "meta_mean_anomaly": 133.4071,
        "meta_ephemeris_type": 0,
        "meta_classification_type": "U",
        "meta_norad_cat_id": 34302,
        "meta_element_set_no": 999,
        "meta_rev_at_epoch": 87664,
        "meta_bstar": 0.0011045,
        "meta_mean_motion_dot": 3.532e-05,
        "meta_mean_motion_ddot": 0,
        "tle_line1": "1 34302U 93036MY  25342.81083382  .00003532  00000+0  11045-2 0  9997",
        "tle_line2": "2 34302  74.1784 130.7697 0078531 347.1548 133.4071 14.39308605876643"
      },
      "geometry": {
        "type": "Point",
        "coordinates": [
          -51.304144449655524,
          4.545359149954798
        ]
      }
    },
    {
      "type": "Feature",
      "properties": {
        "norad_id": 34303,
        "name": "COSMOS 2251 DEB",
        "group": "cosmos-2251-debris",
        "lat": 10.568579087289065,
        "lon": 111.61008731632714,
        "alt_km": 719.5244809427832,
        "timestamp": "2025-12-09T05:43:21.120356+00:00",
        "meta_object_name": "COSMOS 2251 DEB",
        "meta_object_id": "1993-036MZ",
        "meta_epoch": "2025-12-08T20:51:22.019904",
        "meta_mean_motion": 14.54371333,
        "meta_eccentricity": 0.0134953,
        "meta_inclination": 74.0058,
        "meta_ra_of_asc_node": 295.3776,
        "meta_arg_of_pericenter": 74.7195,
        "meta_mean_anomaly": 319.1519,
        "meta_ephemeris_type": 0,
        "meta_classification_type": "U",
        "meta_norad_cat_id": 34303,
        "meta_element_set_no": 999,
        "meta_rev_at_epoch": 87906,
        "meta_bstar": 0.0022254,
        "meta_mean_motion_dot": 0.00010666,
        "meta_mean_motion_ddot": 0,
        "tle_line1": "1 34303U 93036MZ  25342.86900486  .00010666  00000+0  22254-2 0  9996",
        "tle_line2": "2 34303  74.0058 295.3776 0134953  74.7195 319.1519 14.54371333879069"
      },
      "geometry": {
        "type": "Point",
        "coordinates": [
          111.61008731632714,
          10.568579087289065
        ]
      }
    },
    {
      "type": "Feature",
      "properties": {
        "norad_id": 34304,
        "name": "COSMOS 2251 DEB",
        "group": "cosmos-2251-debris",
        "lat": 50.39364181696853,
        "lon": -71.2172576814861,
        "alt_km": 831.7673727247893,
        "timestamp": "2025-12-09T05:43:21.120366+00:00",
        "meta_object_name": "COSMOS 2251 DEB",
        "meta_object_id": "1993-036NA",
        "meta_epoch": "2025-12-08T19:41:09.143808",
        "meta_mean_motion": 14.37801928,
        "meta_eccentricity": 0.0128949,
        "meta_inclination": 74.0134,
        "meta_ra_of_asc_node": 129.8244,
        "meta_arg_of_pericenter": 268.4157,
        "meta_mean_anomaly": 215.4454,
        "meta_ephemeris_type": 0,
        "meta_classification_type": "U",
        "meta_norad_cat_id": 34304,
        "meta_element_set_no": 999,
        "meta_rev_at_epoch": 87240,
        "meta_bstar": 0.0024439,
        "meta_mean_motion_dot": 8.087e-05,
        "meta_mean_motion_ddot": 0,
        "tle_line1": "1 34304U 93036NA  25342.82024472  .00008087  00000+0  24439-2 0  9996",
        "tle_line2": "2 34304  74.0134 129.8244 0128949 268.4157 215.4454 14.37801928872400"
      },
      "geometry": {
        "type": "Point",
        "coordinates": [
          -71.2172576814861,
          50.39364181696853
        ]
      }
    },
    {
      "type": "Feature",
      "properties": {
        "norad_id": 34307,
        "name": "COSMOS 2251 DEB",
        "group": "cosmos-2251-debris",
        "lat": -50.83501231718302,
        "lon": -61.81436818016,
        "alt_km": 1327.146944530673,
        "timestamp": "2025-12-09T05:43:21.120377+00:00",
        "meta_object_name": "COSMOS 2251 DEB",
        "meta_object_id": "1993-036ND",
        "meta_epoch": "2025-12-08T09:28:06.570336",
        "meta_mean_motion": 13.54312496,
        "meta_eccentricity": 0.03922034,
        "meta_inclination": 74.0531,
        "meta_ra_of_asc_node": 320.088,
        "meta_arg_of_pericenter": 151.9843,
        "meta_mean_anomaly": 359.4417,
        "meta_ephemeris_type": 0,
        "meta_classification_type": "U",
        "meta_norad_cat_id": 34307,
        "meta_element_set_no": 999,
        "meta_rev_at_epoch": 82803,
        "meta_bstar": 0.00097370567,
        "meta_mean_motion_dot": 1.064e-05,
        "meta_mean_motion_ddot": 0,
        "tle_line1": "1 34307U 93036ND  25342.39452049  .00001064  00000+0  97371-3 0  9990",
        "tle_line2": "2 34307  74.0531 320.0880 0392203 151.9843 359.4417 13.54312496828032"
      },
      "geometry": {
        "type": "Point",
        "coordinates": [
          -61.81436818016,
          -50.83501231718302
        ]
      }
    },
    {
      "type": "Feature",
      "properties": {
        "norad_id": 34313,
        "name": "COSMOS 2251 DEB",
        "group": "cosmos-2251-debris",
        "lat": -2.699888033125241,
        "lon": 133.62305795395807,
        "alt_km": 515.545345603804,
        "timestamp": "2025-12-09T05:43:21.120387+00:00",
        "meta_object_name": "COSMOS 2251 DEB",
        "meta_object_id": "1993-036NK",
        "meta_epoch": "2025-12-08T08:21:37.504800",
        "meta_mean_motion": 15.17997396,
        "meta_eccentricity": 0.00113472,
        "meta_inclination": 73.9726,
        "meta_ra_of_asc_node": 314.7129,
        "meta_arg_of_pericenter": 86.6621,
        "meta_mean_anomaly": 273.5873,
        "meta_ephemeris_type": 0,
        "meta_classification_type": "U",
        "meta_norad_cat_id": 34313,
        "meta_element_set_no": 999,
        "meta_rev_at_epoch": 88998,
        "meta_bstar": 0.0045092243,
        "meta_mean_motion_dot": 0.00093005,
        "meta_mean_motion_ddot": 0,
        "tle_line1": "1 34313U 93036NK  25342.34835075  .00093005  00000+0  45092-2 0  9994",
        "tle_line2": "2 34313  73.9726 314.7129 0011347  86.6621 273.5873 15.17997396889986"
      },
      "geometry": {
        "type": "Point",
        "coordinates": [
          133.62305795395807,
          -2.699888033125241
        ]
      }
    }
  ]
}